NORAD_CAT_ID,OBJECT_NAME,OBJECT_TYPE,EPOCH,MEAN_MOTION,ECCENTRICITY,INCLINATION,RA_OF_ASC_NODE,ARG_OF_PERICENTER,MEAN_ANOMALY,BSTAR,MEAN_MOTION_DOT,MEAN_MOTION_DDOT,TLE_LINE0,TLE_LINE1,TLE_LINE2,SEMIMAJOR_AXIS,PERIOD,APOGEE,PERIGEE,DECAYED
50159.0,STARLINK-3297,PAYLOAD,2024-04-07 09:52:57,15.08832744,0.0001464,53.2167,167.289,98.5875,261.5283,-6.445e-05,-1.313e-05,0.0,0 STARLINK-3297,1 50159U 21125D   24098.41177296 -.00001313  00000-0 -64450-4 0  9994,2 50159  53.2167 167.2890 0001464  98.5875 261.5283 15.08832744127049,6917.903,95.438,540.78,538.755,0.0
50159.0,STARLINK-3297,PAYLOAD,2024-04-07 11:28:20,15.0882806,0.0001294,53.2162,166.9937,90.0166,270.0975,3.3428e-05,2.44e-06,0.0,0 STARLINK-3297,1 50159U 21125D   24098.47801454  .00000244  00000-0  33428-4 0  9991,2 50159  53.2162 166.9937 0001294  90.0166 270.0975 15.08828060130596,6917.917,95.438,540.677,538.887,0.0
50159.0,STARLINK-3297,PAYLOAD,2024-04-07 21:00:38,15.08840392,0.0001376,53.2171,165.2088,86.7762,273.3388,-6.6221e-05,-1.342e-05,0.0,0 STARLINK-3297,1 50159U 21125D   24098.87544969 -.00001342  00000-0 -66221-4 0  9999,2 50159  53.2171 165.2088 0001376  86.7762 273.3388 15.08840392130653,6917.879,95.438,540.696,538.792,0.0
50159.0,STARLINK-3297,PAYLOAD,2024-04-08 11:19:06,15.08842129,0.0001174,53.2157,162.5333,86.494,273.6187,0.00018733,2.695e-05,0.0,0 STARLINK-3297,1 50159U 21125D   24099.47160293  .00002695  00000-0  18733-3 0  9994,2 50159  53.2157 162.5333 0001174  86.4940 273.6187 15.08842129127208,6917.874,95.437,540.551,538.927,0.0
50159.0,STARLINK-3297,PAYLOAD,2024-04-08 20:51:24,15.08850015,0.0001261,53.2164,160.7487,84.959,275.1546,0.00021514,3.139e-05,0.0,0 STARLINK-3297,1 50159U 21125D   24099.86903711  .00003139  00000-0  21514-3 0  9992,2 50159  53.2164 160.7487 0001261  84.9590 275.1546 15.08850015130806,6917.85,95.437,540.587,538.842,0.0
50159.0,STARLINK-3297,PAYLOAD,2024-04-09 11:09:52,15.08860614,0.0001239,53.216,158.0728,87.5764,272.537,0.00029352,4.389e-05,0.0,0 STARLINK-3297,1 50159U 21125D   24100.46518623  .00004389  00000-0  29352-3 0  9991,2 50159  53.2160 158.0728 0001239  87.5764 272.5370 15.08860614127355,6917.817,95.436,540.539,538.825,0.0
50159.0,STARLINK-3297,PAYLOAD,2024-04-09 20:42:11,15.08850746,0.0001154,53.2159,156.2885,90.702,269.4105,0.00017917,2.566e-05,0.0,0 STARLINK-3297,1 50159U 21125D   24100.86263327  .00002566  00000-0  17917-3 0  9992,2 50159  53.2159 156.2885 0001154  90.7020 269.4105 15.08850746127417,6917.848,95.437,540.511,538.914,0.0
50159.0,STARLINK-3297,PAYLOAD,2024-04-10 12:36:03,15.0883491,0.0001902,53.2183,153.3151,87.6243,272.4967,-0.00026013,-4.425e-05,0.0,0 STARLINK-3297,1 50159U 21125D   24101.52504077 -.00004425  00000-0 -26013-3 0  9991,2 50159  53.2183 153.3151 0001902  87.6243 272.4967 15.08834910127517,6917.896,95.438,541.077,538.445,0.0
50159.0,STARLINK-3297,PAYLOAD,2024-04-10 20:33:00,15.08838186,0.0001973,53.2201,151.8269,85.6108,274.511,-0.00024452,-4.178e-05,0.0,0 STARLINK-3297,1 50159U 21125D   24101.85625124 -.00004178  00000-0 -24452-3 0  9994,2 50159  53.2201 151.8269 0001973  85.6108 274.5110 15.08838186127564,6917.886,95.438,541.116,538.386,0.0
50159.0,STARLINK-3297,PAYLOAD,2024-04-11 10:51:28,15.08836972,0.0001343,53.216,149.1505,85.9085,274.2061,-0.00021067,-3.639e-05,0.0,0 STARLINK-3297,1 50159U 21125D   24102.45241200 -.00003639  00000-0 -21067-3 0  9990,2 50159  53.2160 149.1505 0001343  85.9085 274.2061 15.08836972131196,6917.89,95.438,540.684,538.826,0.0
50159.0,STARLINK-3297,PAYLOAD,2024-04-11 20:23:46,15.08849306,0.000141,53.2171,147.367,86.7318,273.3835,-8.0053e-05,-1.562e-05,0.0,0 STARLINK-3297,1 50159U 21125D   24102.84984024 -.00001562  00000-0 -80053-4 0  9995,2 50159  53.2171 147.3670 0001410  86.7318 273.3835 15.08849306127711,6917.852,95.437,540.692,538.742,0.0
50159.0,STARLINK-3297,PAYLOAD,2024-04-12 09:06:50,15.08853427,0.0001573,53.2162,144.9876,88.2326,271.8846,0.00029677,4.44e-05,0.0,0 STARLINK-3297,1 50159U 21125D   24103.37974809  .00004440  00000-0  29677-3 0  9994,2 50159  53.2162 144.9876 0001573  88.2326 271.8846 15.08853427127790,6917.839,95.437,540.793,538.616,0.0
50159.0,STARLINK-3297,PAYLOAD,2024-04-13 08:57:38,15.08838303,0.0001312,53.2154,140.5275,92.5244,267.5899,0.00011894,1.605e-05,0.0,0 STARLINK-3297,1 50159U 21125D   24104.37336656  .00001605  00000-0  11894-3 0  9999,2 50159  53.2154 140.5275 0001312  92.5244 267.5899 15.08838303127947,6917.886,95.438,540.658,538.843,0.0
50159.0,STARLINK-3297,PAYLOAD,2024-04-14 08:48:25,15.08840902,0.0001396,53.217,136.0691,94.7348,265.3804,0.00015811,2.229e-05,0.0,0 STARLINK-3297,1 50159U 21125D   24105.36696224  .00002229  00000-0  15811-3 0  9995,2 50159  53.2170 136.0691 0001396  94.7348 265.3804 15.08840902131639,6917.878,95.437,540.708,538.777,0.0
50159.0,STARLINK-3297,PAYLOAD,2024-04-15 02:17:39,15.08847033,0.0001538,53.217,132.7964,78.6425,281.474,0.00023688,3.485e-05,0.0,0 STARLINK-3297,1 50159U 21125D   24106.09559604  .00003485  00000-0  23688-3 0  9992,2 50159  53.2170 132.7964 0001538  78.6425 281.4740 15.08847033128209,6917.859,95.437,540.788,538.66,0.0
50159.0,STARLINK-3297,PAYLOAD,2024-04-15 08:39:11,15.08856698,0.0001614,53.2164,131.6077,81.5643,278.5532,0.0003982,6.058e-05,0.0,0 STARLINK-3297,1 50159U 21125D   24106.36055479  .00006058  00000-0  39820-3 0  9997,2 50159  53.2164 131.6077 0001614  81.5643 278.5532 15.08856698131785,6917.829,95.436,540.811,538.578,0.0
50159.0,STARLINK-3297,PAYLOAD,2024-04-15 18:11:30,15.08866127,0.0001659,53.2167,129.8237,87.2105,272.9077,0.00044298,6.774e-05,0.0,0 STARLINK-3297,1 50159U 21125D   24106.75798759  .00006774  00000-0  44298-3 0  9995,2 50159  53.2167 129.8237 0001659  87.2105 272.9077 15.08866127131847,6917.801,95.436,540.813,538.518,0.0
50159.0,STARLINK-3297,PAYLOAD,2024-04-16 05:19:11,15.08870664,0.000182,53.2173,127.7458,103.4812,256.6384,0.00023177,3.405e-05,0.0,0 STARLINK-3297,1 50159U 21125D   24107.22165966  .00003405  00000-0  23177-3 0  9997,2 50159  53.2173 127.7458 0001820 103.4812 256.6384 15.08870664128377,6917.787,95.436,540.911,538.393,0.0
50159.0,STARLINK-3297,PAYLOAD,2024-04-16 11:40:44,15.08842586,0.000144,53.2163,126.5518,88.3075,271.8082,-0.00026125,-4.444e-05,0.0,0 STARLINK-3297,1 50159U 21125D   24107.48662622 -.00004444  00000-0 -26125-3 0  9998,2 50159  53.2163 126.5518 0001440  88.3075 271.8082 15.08842586128411,6917.872,95.437,540.734,538.741,0.0
50159.0,STARLINK-3297,PAYLOAD,2024-04-17 05:09:59,15.08820768,0.0001394,53.2158,123.281,97.9286,262.1865,-0.00024421,-4.17e-05,0.0,0 STARLINK-3297,1 50159U 21125D   24108.21527663 -.00004170  00000-0 -24421-3 0  9998,2 50159  53.2158 123.2810 0001394  97.9286 262.1865 15.08820768128524,6917.939,95.439,540.769,538.84,0.0
50159.0,STARLINK-3297,PAYLOAD,2024-04-17 11:31:33,15.08819149,0.0001683,53.2159,122.0944,64.4887,295.6279,-0.00020497,-3.547e-05,0.0,0 STARLINK-3297,1 50159U 21125D   24108.48024494 -.00003547  00000-0 -20497-3 0  9997,2 50159  53.2159 122.0944 0001683  64.4887 295.6279 15.08819149132107,6917.944,95.439,540.973,538.645,0.0
50159.0,STARLINK-3297,PAYLOAD,2024-04-18 00:14:40,15.08785513,0.000144,53.2144,119.7114,98.1475,261.968,-0.00043139,-7.137e-05,0.0,0 STARLINK-3297,1 50159U 21125D   24109.01019191 -.00007137  00000-0 -43139-3 0  9992,2 50159  53.2144 119.7114 0001440  98.1475 261.9680 15.08785513128644,6918.047,95.441,540.908,538.916,0.0
50159.0,STARLINK-3297,PAYLOAD,2024-04-18 08:11:36,15.08812251,0.0001376,53.2151,118.2253,85.5208,274.5942,0.00038005,5.761e-05,0.0,0 STARLINK-3297,1 50159U 21125D   24109.34139539  .00005761  00000-0  38005-3 0  9992,2 50159  53.2151 118.2253 0001376  85.5208 274.5942 15.08812251128698,6917.965,95.439,540.782,538.878,0.0
50159.0,STARLINK-3297,PAYLOAD,2024-04-19 04:51:37,15.08842894,0.000127,53.215,114.3567,92.5393,267.5744,0.00075669,0.00011776,0.0,0 STARLINK-3297,1 50159U 21125D   24110.20251575  .00011776  00000-0  75669-3 0  9994,2 50159  53.2150 114.3567 0001270  92.5393 267.5744 15.08842894128821,6917.872,95.437,540.615,538.858,0.0
50159.0,STARLINK-3297,PAYLOAD,2024-04-19 08:02:23,15.088589,0.0001562,53.2158,113.766,75.2547,284.8618,0.0011571,0.00018185,0.0,0 STARLINK-3297,1 50159U 21125D   24110.33499680  .00018185  00000-0  11571-2 0  9991,2 50159  53.2158 113.7660 0001562  75.2547 284.8618 15.08858900132382,6917.823,95.436,540.768,538.607,0.0
50159.0,STARLINK-3297,PAYLOAD,2024-04-20 04:42:23,15.08871296,0.0001578,53.2157,109.8985,82.3897,277.7275,0.00060473,9.358e-05,0.0,0 STARLINK-3297,1 50159U 21125D   24111.19610200  .00009358  00000-0  60473-3 0  9997,2 50159  53.2157 109.8985 0001578  82.3897 277.7275 15.08871296128974,6917.785,95.436,540.741,538.558,0.0
50159.0,STARLINK-3297,PAYLOAD,2024-04-20 06:17:46,15.08873675,0.0001627,53.2157,109.6012,80.1757,279.9418,0.0006552,0.00010164,0.0,0 STARLINK-3297,1 50159U 21125D   24111.26234052  .00010164  00000-0  65520-3 0  9997,2 50159  53.2157 109.6012 0001627  80.1757 279.9418 15.08873675132521,6917.777,95.435,540.768,538.517,0.0
50159.0,STARLINK-3297,PAYLOAD,2024-04-21 04:33:10,15.0883268,0.0001813,53.2163,105.4396,127.7532,232.3625,-0.00025445,-4.335e-05,0.0,0 STARLINK-3297,1 50159U 21125D   24112.18970850 -.00004335  00000-0 -25445-3 0  9999,2 50159  53.2163 105.4396 0001813 127.7532 232.3625 15.08832680129129,6917.903,95.438,541.022,538.514,0.0
50159.0,STARLINK-3297,PAYLOAD,2024-04-21 09:19:20,15.08825531,0.0001298,53.2157,104.5473,104.6548,255.4588,-0.00030713,-5.171e-05,0.0,0 STARLINK-3297,1 50159U 21125D   24112.38843469 -.00005171  00000-0 -30713-3 0  9999,2 50159  53.2157 104.5473 0001298 104.6548 255.4588 15.08825531132693,6917.925,95.438,540.688,538.892,0.0
50159.0,STARLINK-3297,PAYLOAD,2024-04-22 04:23:58,15.08848313,0.0001313,53.2151,100.981,53.2115,306.8998,0.00057336,8.851e-05,0.0,0 STARLINK-3297,1 50159U 21125D   24113.18331550  .00008851  00000-0  57336-3 0  9997,2 50159  53.2151 100.9810 0001313  53.2115 306.8998 15.08848313129278,6917.855,95.437,540.628,538.812,0.0
